start=new Date('2021-12-01T00:00:00.000Z').valueOf();
sats=[{"TLE_LINE2":"2 48445  53.0575 346.4001 0001674  57.0406 303.0744 15.06397606 31446","MEAN_MOTION_DDOT":"0.0000000000000","SEMIMAJOR_AXIS":"6925.356","RA_OF_ASC_NODE":"346.4001","APOAPSIS":"548.380","LAUNCH_DATE":"2021-05-09","OBJECT_ID":"2021-040T","CLASSIFICATION_TYPE":"U","INCLINATION":"53.0575","SITE":"AFETR","GP_ID":"190786479","BSTAR":"0.00004131700000","OBJECT_NAME":"STARLINK-2634","EPOCH":"2021-11-30T07:35:41.263584","MEAN_ANOMALY":"303.0744","PERIOD":"95.592","TLE_LINE1":"1 48445U 21040T   21334.31644981  .00000334  00000-0  41317-4 0  9991","NORAD_CAT_ID":"48445","ARG_OF_PERICENTER":"57.0406","EPHEMERIS_TYPE":"0","REV_AT_EPOCH":"3144","MEAN_ELEMENT_THEORY":"SGP4","PERIAPSIS":"546.062","ECCENTRICITY":"0.00016740","COUNTRY_CODE":"US","DECAY_DATE":null,"CENTER_NAME":"EARTH","RCS_SIZE":"LARGE","OBJECT_TYPE":"PAYLOAD","REF_FRAME":"TEME","FILE":"3227572","TIME_SYSTEM":"UTC","MEAN_MOTION":"15.06397606","MEAN_MOTION_DOT":"0.00000334","ELEMENT_SET_NO":"999"},{"EPHEMERIS_TYPE":"0","ARG_OF_PERICENTER":"54.2082","TLE_LINE1":"1 48446U 21040U   21334.44546032  .00000213  00000-0  33190-4 0  9990","NORAD_CAT_ID":"48446","MEAN_ELEMENT_THEORY":"SGP4","PERIAPSIS":"546.080","REV_AT_EPOCH":"3146","GP_ID":"190818625","BSTAR":"0.00003319000000","SITE":"AFETR","INCLINATION":"53.0566","MEAN_ANOMALY":"305.9060","PERIOD":"95.592","OBJECT_NAME":"STARLINK-2247","EPOCH":"2021-11-30T10:41:27.771648","CLASSIFICATION_TYPE":"U","OBJECT_ID":"2021-040U","SEMIMAJOR_AXIS":"6925.356","RA_OF_ASC_NODE":"345.8177","LAUNCH_DATE":"2021-05-09","APOAPSIS":"548.362","TLE_LINE2":"2 48446  53.0566 345.8177 0001648  54.2082 305.9060 15.06397532 31466","MEAN_MOTION_DDOT":"0.0000000000000","MEAN_MOTION_DOT":"0.00000213","ELEMENT_SET_NO":"999","MEAN_MOTION":"15.06397532","DECAY_DATE":null,"CENTER_NAME":"EARTH","COUNTRY_CODE":"US","RCS_SIZE":"LARGE","OBJECT_TYPE":"PAYLOAD","REF_FRAME":"TEME","FILE":"3228256","TIME_SYSTEM":"UTC","ECCENTRICITY":"0.00016480"},{"MEAN_MOTION":"15.06398654","MEAN_MOTION_DOT":"0.00000327","ELEMENT_SET_NO":"999","ECCENTRICITY":"0.00017750","RCS_SIZE":"LARGE","OBJECT_TYPE":"PAYLOAD","REF_FRAME":"TEME","CENTER_NAME":"EARTH","DECAY_DATE":null,"COUNTRY_CODE":"US","TIME_SYSTEM":"UTC","FILE":"3228256","SITE":"AFETR","GP_ID":"190817872","BSTAR":"0.00004086900000","INCLINATION":"53.0556","PERIOD":"95.592","MEAN_ANOMALY":"299.8218","EPOCH":"2021-11-30T20:09:23.567040","OBJECT_NAME":"STARLINK-2269","ARG_OF_PERICENTER":"60.2948","EPHEMERIS_TYPE":"0","NORAD_CAT_ID":"48447","TLE_LINE1":"1 48447U 21040V   21334.83985610  .00000327  00000-0  40869-4 0  9990","PERIAPSIS":"545.988","MEAN_ELEMENT_THEORY":"SGP4","REV_AT_EPOCH":"3152","APOAPSIS":"548.447","LAUNCH_DATE":"2021-05-09","RA_OF_ASC_NODE":"344.0445","SEMIMAJOR_AXIS":"6925.353","MEAN_MOTION_DDOT":"0.0000000000000","TLE_LINE2":"2 48447  53.0556 344.0445 0001775  60.2948 299.8218 15.06398654 31523","CLASSIFICATION_TYPE":"U","OBJECT_ID":"2021-040V"},{"MEAN_MOTION_DOT":"-0.00000830","ELEMENT_SET_NO":"999","MEAN_MOTION":"15.06393454","RCS_SIZE":"LARGE","REF_FRAME":"TEME","OBJECT_TYPE":"PAYLOAD","COUNTRY_CODE":"US","DECAY_DATE":null,"CENTER_NAME":"EARTH","TIME_SYSTEM":"UTC","FILE":"3228256","ECCENTRICITY":"0.00016370","NORAD_CAT_ID":"48448","TLE_LINE1":"1 48448U 21040W   21334.40028853 -.00000830  00000-0 -36860-4 0  9998","ARG_OF_PERICENTER":"57.3414","EPHEMERIS_TYPE":"0","REV_AT_EPOCH":"3145","PERIAPSIS":"546.100","MEAN_ELEMENT_THEORY":"SGP4","INCLINATION":"53.0571","BSTAR":"-0.00003686000000","GP_ID":"190818023","SITE":"AFETR","EPOCH":"2021-11-30T09:36:24.928992","OBJECT_NAME":"STARLINK-2632","PERIOD":"95.593","MEAN_ANOMALY":"302.7733","OBJECT_ID":"2021-040W","CLASSIFICATION_TYPE":"U","TLE_LINE2":"2 48448  53.0571 346.0199 0001637  57.3414 302.7733 15.06393454 31452","MEAN_MOTION_DDOT":"0.0000000000000","APOAPSIS":"548.367","LAUNCH_DATE":"2021-05-09","SEMIMAJOR_AXIS":"6925.369","RA_OF_ASC_NODE":"346.0199"},{"OBJECT_NAME":"STARLINK-2655","EPOCH":"2021-11-30T18:28:32.704608","MEAN_ANOMALY":"302.2324","PERIOD":"95.592","INCLINATION":"53.0572","GP_ID":"190818775","BSTAR":"0.00006076100000","SITE":"AFETR","REV_AT_EPOCH":"3151","MEAN_ELEMENT_THEORY":"SGP4","PERIAPSIS":"546.260","TLE_LINE1":"1 48449U 21040X   21334.76982297  .00000624  00000-0  60761-4 0  9995","NORAD_CAT_ID":"48449","EPHEMERIS_TYPE":"0","ARG_OF_PERICENTER":"57.8800","TLE_LINE2":"2 48449  53.0572 344.3623 0001391  57.8800 302.2324 15.06396883 31515","MEAN_MOTION_DDOT":"0.0000000000000","RA_OF_ASC_NODE":"344.3623","SEMIMAJOR_AXIS":"6925.358","APOAPSIS":"548.186","LAUNCH_DATE":"2021-05-09","OBJECT_ID":"2021-040X","CLASSIFICATION_TYPE":"U","MEAN_MOTION":"15.06396883","ELEMENT_SET_NO":"999","MEAN_MOTION_DOT":"0.00000624","ECCENTRICITY":"0.00013910","FILE":"3228256","TIME_SYSTEM":"UTC","DECAY_DATE":null,"COUNTRY_CODE":"US","CENTER_NAME":"EARTH","RCS_SIZE":"LARGE","REF_FRAME":"TEME","OBJECT_TYPE":"PAYLOAD"},{"REV_AT_EPOCH":"3151","PERIAPSIS":"546.096","MEAN_ELEMENT_THEORY":"SGP4","NORAD_CAT_ID":"48450","TLE_LINE1":"1 48450U 21040Y   21334.76612816  .00000702  00000-0  65991-4 0  9991","ARG_OF_PERICENTER":"58.7908","EPHEMERIS_TYPE":"0","EPOCH":"2021-11-30T18:23:13.473024","OBJECT_NAME":"STARLINK-2660","PERIOD":"95.592","MEAN_ANOMALY":"301.3236","INCLINATION":"53.0561","BSTAR":"0.00006599100000","GP_ID":"190818925","SITE":"AFETR","OBJECT_ID":"2021-040Y","CLASSIFICATION_TYPE":"U","TLE_LINE2":"2 48450  53.0561 344.3749 0001590  58.7908 301.3236 15.06405263 31519","MEAN_MOTION_DDOT":"0.0000000000000","LAUNCH_DATE":"2021-05-09","APOAPSIS":"548.299","RA_OF_ASC_NODE":"344.3749","SEMIMAJOR_AXIS":"6925.332","ELEMENT_SET_NO":"999","MEAN_MOTION_DOT":"0.00000702","MEAN_MOTION":"15.06405263","TIME_SYSTEM":"UTC","FILE":"3228256","RCS_SIZE":"LARGE","REF_FRAME":"TEME","OBJECT_TYPE":"PAYLOAD","COUNTRY_CODE":"US","DECAY_DATE":null,"CENTER_NAME":"EARTH","ECCENTRICITY":"0.00015900"},{"ARG_OF_PERICENTER":"53.5964","EPHEMERIS_TYPE":"0","NORAD_CAT_ID":"48451","TLE_LINE1":"1 48451U 21040Z   21334.76244434 -.00000206  00000-0  50803-5 0  9996","PERIAPSIS":"545.936","MEAN_ELEMENT_THEORY":"SGP4","REV_AT_EPOCH":"3151","GP_ID":"190818174","BSTAR":"0.00000508030000","SITE":"AFETR","INCLINATION":"53.0572","PERIOD":"95.592","MEAN_ANOMALY":"306.5193","EPOCH":"2021-11-30T18:17:55.190976","OBJECT_NAME":"STARLINK-2652","CLASSIFICATION_TYPE":"U","OBJECT_ID":"2021-040Z","APOAPSIS":"548.471","LAUNCH_DATE":"2021-05-09","SEMIMAJOR_AXIS":"6925.339","RA_OF_ASC_NODE":"344.3958","MEAN_MOTION_DDOT":"0.0000000000000","TLE_LINE2":"2 48451  53.0572 344.3958 0001830  53.5964 306.5193 15.06403254 31513","MEAN_MOTION_DOT":"-0.00000206","ELEMENT_SET_NO":"999","MEAN_MOTION":"15.06403254","RCS_SIZE":"LARGE","OBJECT_TYPE":"PAYLOAD","REF_FRAME":"TEME","DECAY_DATE":null,"CENTER_NAME":"EARTH","COUNTRY_CODE":"US","TIME_SYSTEM":"UTC","FILE":"3228256","ECCENTRICITY":"0.00018300"},{"CLASSIFICATION_TYPE":"U","OBJECT_ID":"2021-040AA","RA_OF_ASC_NODE":"344.3802","SEMIMAJOR_AXIS":"6925.347","APOAPSIS":"548.257","LAUNCH_DATE":"2021-05-09","TLE_LINE2":"2 48452  53.0563 344.3802 0001509  65.7349 294.3798 15.06400435 31510","MEAN_MOTION_DDOT":"0.0000000000000","EPHEMERIS_TYPE":"0","ARG_OF_PERICENTER":"65.7349","TLE_LINE1":"1 48452U 21040AA  21334.76518969  .00000332  00000-0  41200-4 0  9993","NORAD_CAT_ID":"48452","MEAN_ELEMENT_THEORY":"SGP4","PERIAPSIS":"546.167","REV_AT_EPOCH":"3151","GP_ID":"190818324","SITE":"AFETR","BSTAR":"0.00004120000000","INCLINATION":"53.0563","MEAN_ANOMALY":"294.3798","PERIOD":"95.592","OBJECT_NAME":"STARLINK-2703","EPOCH":"2021-11-30T18:21:52.389216","COUNTRY_CODE":"US","DECAY_DATE":null,"CENTER_NAME":"EARTH","RCS_SIZE":"LARGE","OBJECT_TYPE":"PAYLOAD","REF_FRAME":"TEME","FILE":"3228256","TIME_SYSTEM":"UTC","ECCENTRICITY":"0.00015090","MEAN_MOTION_DOT":"0.00000332","ELEMENT_SET_NO":"999","MEAN_MOTION":"15.06400435"},{"NORAD_CAT_ID":"48453","TLE_LINE1":"1 48453U 21040AB  21334.75876862  .00000215  00000-0  33337-4 0  9994","ARG_OF_PERICENTER":"60.6416","EPHEMERIS_TYPE":"0","REV_AT_EPOCH":"3151","PERIAPSIS":"546.222","MEAN_ELEMENT_THEORY":"SGP4","INCLINATION":"53.0549","BSTAR":"0.00003333700000","GP_ID":"190818475","SITE":"AFETR","EPOCH":"2021-11-30T18:12:37.608768","OBJECT_NAME":"STARLINK-2620","PERIOD":"95.592","MEAN_ANOMALY":"299.4719","OBJECT_ID":"2021-040AB","CLASSIFICATION_TYPE":"U","TLE_LINE2":"2 48453  53.0549 344.4075 0001455  60.6416 299.4719 15.06394903 31518","MEAN_MOTION_DDOT":"0.0000000000000","LAUNCH_DATE":"2021-05-09","APOAPSIS":"548.237","RA_OF_ASC_NODE":"344.4075","SEMIMAJOR_AXIS":"6925.364","MEAN_MOTION_DOT":"0.00000215","ELEMENT_SET_NO":"999","MEAN_MOTION":"15.06394903","RCS_SIZE":"LARGE","OBJECT_TYPE":"PAYLOAD","REF_FRAME":"TEME","DECAY_DATE":null,"CENTER_NAME":"EARTH","COUNTRY_CODE":"US","TIME_SYSTEM":"UTC","FILE":"3228256","ECCENTRICITY":"0.00014550"},{"EPHEMERIS_TYPE":"0","ARG_OF_PERICENTER":"45.9090","NORAD_CAT_ID":"48454","TLE_LINE1":"1 48454U 21040AC  21334.75507942  .00000210  00000-0  33004-4 0  9991","PERIAPSIS":"545.945","MEAN_ELEMENT_THEORY":"SGP4","REV_AT_EPOCH":"3151","BSTAR":"0.00003300400000","GP_ID":"190818626","SITE":"AFETR","INCLINATION":"53.0571","PERIOD":"95.592","MEAN_ANOMALY":"314.2051","EPOCH":"2021-11-30T18:07:18.861888","OBJECT_NAME":"STARLINK-2654","CLASSIFICATION_TYPE":"U","OBJECT_ID":"2021-040AC","APOAPSIS":"548.507","LAUNCH_DATE":"2021-05-09","RA_OF_ASC_NODE":"344.4274","SEMIMAJOR_AXIS":"6925.361","TLE_LINE2":"2 48454  53.0571 344.4274 0001850  45.9090 314.2051 15.06395951 31517","MEAN_MOTION_DDOT":"0.0000000000000","MEAN_MOTION_DOT":"0.00000210","ELEMENT_SET_NO":"999","MEAN_MOTION":"15.06395951","OBJECT_TYPE":"PAYLOAD","RCS_SIZE":"LARGE","REF_FRAME":"TEME","DECAY_DATE":null,"CENTER_NAME":"EARTH","COUNTRY_CODE":"US","TIME_SYSTEM":"UTC","FILE":"3228256","ECCENTRICITY":"0.00018500"}];
